#dP2024 12 23 12  0  0.00000000      96 __u+U IGS20 EXT  IAC
## 2346 129600.00000000   900.00000000 60667 0.5000000000000
+   52   G02G03G04G05G06G07G08G09G10G11G12G13G14G15G16G17G18
+        G19G20G21G22G23G24G25G26G27G28G29G30G31G32R01R02R03
+        R04R05R07R08R09R11R12R14R15R16R17R18R19R20R21R22R24
+        R26  0  0  0  0  0  0  0  0  0  0  0  0  0  0  0  0
+          0  0  0  0  0  0  0  0  0  0  0  0  0  0  0  0  0
++         0  0  0  0  0  0  0  0  0  0  0  0  0  0  0  0  0
++         0  0  0  0  0  0  0  0  0  0  0  0  0  0  0  0  0
++         0  0  0  0  0  0  0  0  0  0  0  0  0  0  0  0  0
++         0  0  0  0  0  0  0  0  0  0  0  0  0  0  0  0  0
++         0  0  0  0  0  0  0  0  0  0  0  0  0  0  0  0  0
%c M  cc GPS ccc cccc cccc cccc cccc ccccc ccccc ccccc ccccc
%c cc cc ccc ccc cccc cccc cccc cccc ccccc ccccc ccccc ccccc
%f  0.0000000  0.000000000  0.00000000000  0.000000000000000
%f  0.0000000  0.000000000  0.00000000000  0.000000000000000
%i    0    0    0    0      0      0      0      0         0
%i    0    0    0    0      0      0      0      0         0
/* IAC                                ULTRA-RAPID PREDICTION
/* S/V CLOCKS ARE ALIGNED TO GNSS TIME                      
/* G:C1WC2W R:C1PC2P E:C1XC5X C:C2IC6I J:C1CC2S             
/* PCV:IGS20_2317 OL/AL:FES2004  NONE     YN ORB:CoN CLK:CoN
*  2024 12 24  2 30  0.00000000
PG02  22946.121991  13337.723328   3941.724349   -284.846684
PG03  12983.420745   7874.109576  21641.374806    631.405195
PG04  23141.096848   2289.206080  12990.230367    500.771635
PG05  -6632.482160 -21521.518949 -14205.463372   -196.919005
PG06   3355.022613 -15722.050049  21190.965024    -66.970130
PG07  20399.668867   1980.838448 -16596.659960    -14.702879
PG08  14977.155048   9524.494593 -20017.768044    445.489875
PG09  25441.322571  -5581.151446   5283.767349    499.852496
PG10 -10220.576008  22700.008258  -8523.803796   -246.923778
PG11  -8516.699394 -21169.037643  13682.631837   -752.716380
PG12 -11509.376963 -12096.689022  20379.561251   -560.222063
PG13  -5652.515562 -14168.831540 -21993.742650    691.063228
PG14  12928.221715 -19875.876632 -11679.795759    566.229557
PG15 -16219.420665  -7984.541627 -20026.272874    243.219410
PG16    838.773017  24230.307312 -10649.587048    -95.606912
PG17  20458.122969 -13525.465021  10859.206019    506.049026
PG18 -18732.803799    389.665579 -18883.443541   -659.822195
PG19  11629.221419 -15427.042541  17888.449795    577.550062
PG20  -1202.403736 -26515.965889  -2118.727136    367.643508
PG21  20920.506313  17089.114629  -2475.151189     97.951033
PG22   9739.275487 -24562.169367  -3638.896170    -88.250460
PG23 -14743.438857  10820.324297 -19130.751659    389.684119
PG24 -22109.538178 -15075.798952    549.152212   -470.864284
PG25 -15656.943557   2755.174370  20882.742997    497.735754
PG26  -3717.006335  26041.378351   1307.447985    -20.339342
PG27   3054.576313  15181.544135 -21856.761030    -33.891002
PG28  -5075.959002  15040.325409  21281.081876   -516.615365
PG29 -25955.553409   3409.081534   4821.955263   -553.343429
PG30  12573.299527  -9750.164357 -21138.412570   -254.751378
PG31   4072.897160  19787.071547  16803.268410   -219.373701
PG32 -16464.859114  15873.227590  13556.551446   -554.037681
PR01  -3594.498159 -11081.543529 -22690.152082    108.818931
PR02 -16527.637804   1826.027998 -19269.190562    -38.940184
PR03 -20647.628816  14177.692251  -4598.401353    113.778944
PR04 -13567.082123  17964.513145  12003.364166    269.740701
PR05    838.715405  12425.902104  22266.569063    142.661426
PR07  20698.749504 -14321.503718   4361.391652     97.519322
PR08  13267.693907 -18126.705739 -12065.912841     -6.158506
PR09  12177.660920  10268.550108 -19936.320802    227.997732
PR11   2571.462210 -21631.687172 -13251.968469      3.449818
PR12  -7023.113151 -23775.175488   6056.046458     48.774845
PR14  -9448.911324   8357.890765  22177.955607     27.467761
PR15  -1856.927341  22600.034118  11699.364257     72.900505
PR16   6972.919282  23840.049927  -5881.023861     31.889715
PR17 -18842.940591   1236.341356 -17155.376150    151.202527
PR18  -4138.755155   9692.292700 -23206.194222    178.356394
PR19  10509.191332  13733.430310 -18742.445391   -302.986544
PR20  23446.502385  10096.562329    316.097698   -123.666894
PR21  19522.935659   -348.199862  16404.615489   -162.125884
PR22   3267.687700 -10507.235253  23043.512849    -52.025532
PR24 -23967.959388  -8721.494835   -742.820615    -85.293205
PR26  14392.557857 -18258.070986 -10456.672919   -132.478318
*  2024 12 24  2 45  0.00000000
PG02  23024.504790  13640.473685   1116.022874   -284.838633
PG03  12536.741329  10293.272609  20891.638566    631.412779
PG04  21681.072754   2971.857240  15175.261929    500.777102
PG05  -6297.794241 -22960.266477 -11881.433418   -196.920081
PG06   5254.527236 -14183.233476  21892.363328    -66.995457
PG07  21732.182097   3298.920059 -14685.622467    -14.702006
PG08  12880.777613  10498.621247 -20932.942481    445.497598
PG09  24821.772003  -5065.248750   7998.482222    499.866684
PG10 -10219.041359  21522.246322 -11142.475972   -246.937856
PG11  -7149.199016 -20182.599596  15793.684883   -752.716318
PG12 -10885.014517 -14337.618838  19258.267080   -560.224189
PG13  -3244.727991 -14711.847706 -22104.245268    691.064446
PG14  12917.368092 -18368.769990 -13952.411008    566.236296
PG15 -14321.820089  -9187.007324 -20947.918375    243.223456
PG16    338.593930  25175.016866  -8047.566810    -95.598253
PG17  21505.216203 -13652.665071   8290.352173    506.034210
PG18 -20237.211996  -1026.413167 -17259.192951   -659.821542
PG19  13591.027052 -15768.743780  16095.010355    577.554213
PG20   -947.492242 -26610.537792    719.441897    367.643230
PG21  20434.472232  16971.933340  -5222.706353     97.953176
PG22   9814.390906 -23910.352543  -6398.050282    -88.252530
PG23 -14539.340187   8555.276982 -20409.212661    389.691009
PG24 -21906.752242 -15301.274000  -2226.785210   -470.861250
PG25 -15366.562091    276.080386  21291.592226    497.735346
PG26  -4064.022641  25681.603991   4099.727045    -20.352359
PG27    786.711732  16017.399444 -21410.775826    -33.890700
PG28  -7056.910708  13578.253358  21695.466137   -516.624711
PG29 -25335.990567   2998.996619   7568.355721   -553.340460
PG30  14430.526032  -8186.875104 -20637.098910   -254.743975
PG31   2373.363048  18582.397136  18435.772528   -219.373032
PG32 -17835.538126  16186.842118  11189.224316   -554.031982
PR01  -1606.772410 -12984.787647 -21894.221217    108.820114
PR02 -14584.401979    266.880450 -20859.556620    -38.939925
PR03 -19967.446429  13789.445733  -7707.342756    113.779353
PR04 -14448.079082  18936.112483   9129.440470    269.742148
PR05  -1159.169521  14212.400646  21152.914073    142.661988
PR07  20044.018701 -13970.311346   7471.926243     97.519916
PR08  14163.085104 -19110.173023  -9210.150172     -6.158580
PR09  12771.369474  12544.121427 -18194.807065    227.999724
PR11   2831.833730 -19856.504732 -15743.805955      3.448413
PR12  -7261.907818 -24288.641339   2914.061395     48.775162
PR14 -10009.488949   5643.907711  22779.126518     27.467786
PR15  -2074.808226  21007.465534  14335.674208     72.900192
PR16   7230.350728  24328.806293  -2725.324922     31.890044
PR17 -20755.280251    719.748088 -14824.712873    151.205534
PR18  -6831.558135   8738.303458 -22943.317456    178.358079
PR19   8296.829380  12732.639529 -20478.148706   -302.987676
PR20  23376.445848   9832.665359  -2920.263941   -123.667450
PR21  21339.427739    141.128652  13960.332284   -162.128781
PR22   5911.260749  -9496.157907  22956.507664    -52.037226
PR24 -23918.700041  -8546.338778   2466.558983    -85.294567
PR26  15121.595197 -19110.858663  -7487.150388   -132.478002
EOF
